{
  "norad_id": 57795,
  "name": "TIANQI-24",
  "history": [
    {
      "epoch": "2026-03-28T21:40:51.749472Z",
      "apogee_km": 824.7238315765162,
      "perigee_km": 805.0345322420999,
      "latitude_deg": -2.6482650418629205e-05,
      "longitude_deg": -20.95738958893896,
      "height_km": 806.2518930087622,
      "semi_major_axis_km": 7193.016181909308,
      "eccentricity": 0.00136864,
      "inclination_deg": 49.9721,
      "raan_deg": 130.5754,
      "arg_perigee_deg": 338.4747,
      "mean_anomaly_deg": 21.5588,
      "mean_motion_rev_day": 14.2310258
    },
    {
      "epoch": "2026-03-29T04:25:20.229888Z",
      "apogee_km": 824.7211058881785,
      "perigee_km": 805.0366985701385,
      "latitude_deg": 3.531443233724369e-05,
      "longitude_deg": -123.53465937983448,
      "height_km": 806.1932286106753,
      "semi_major_axis_km": 7193.015902229158,
      "eccentricity": 0.0013683,
      "inclination_deg": 49.9721,
      "raan_deg": 129.3936,
      "arg_perigee_deg": 339.457,
      "mean_anomaly_deg": 20.5791,
      "mean_motion_rev_day": 14.23102663
    },
    {
      "epoch": "2026-03-30T04:00:59.930784Z",
      "apogee_km": 824.7343907425156,
      "perigee_km": 805.0240876438784,
      "latitude_deg": 2.0910731707795182e-05,
      "longitude_deg": -122.55557719536941,
      "height_km": 805.9905132099266,
      "semi_major_axis_km": 7193.016239193197,
      "eccentricity": 0.0013701,
      "inclination_deg": 49.972,
      "raan_deg": 125.2571,
      "arg_perigee_deg": 342.8902,
      "mean_anomaly_deg": 17.1547,
      "mean_motion_rev_day": 14.23102563
    },
    {
      "epoch": "2026-03-30T05:42:07.051968Z",
      "apogee_km": 824.7341165188955,
      "perigee_km": 805.0243888246259,
      "latitude_deg": -1.982749259684184e-05,
      "longitude_deg": -148.1998960314034,
      "height_km": 805.978266285812,
      "semi_major_axis_km": 7193.01625267176,
      "eccentricity": 0.00137006,
      "inclination_deg": 49.972,
      "raan_deg": 124.9617,
      "arg_perigee_deg": 343.1391,
      "mean_anomaly_deg": 16.9064,
      "mean_motion_rev_day": 14.23102559
    },
    {
      "epoch": "2026-03-30T12:26:35.540160Z",
      "apogee_km": 824.7384390771658,
      "perigee_km": 805.020079744917,
      "latitude_deg": 5.960875952623212e-05,
      "longitude_deg": 109.22281669489514,
      "height_km": 805.9257096966468,
      "semi_major_axis_km": 7193.016259411041,
      "eccentricity": 0.00137066,
      "inclination_deg": 49.972,
      "raan_deg": 123.7799,
      "arg_perigee_deg": 344.1354,
      "mean_anomaly_deg": 15.9128,
      "mean_motion_rev_day": 14.23102557
    },
    {
      "epoch": "2026-03-30T20:52:11.143488Z",
      "apogee_km": 824.7416668823862,
      "perigee_km": 805.0166901969478,
      "latitude_deg": 4.099667677708987e-05,
      "longitude_deg": -18.999012026935176,
      "height_km": 805.8667736474546,
      "semi_major_axis_km": 7193.016178539667,
      "eccentricity": 0.00137112,
      "inclination_deg": 49.972,
      "raan_deg": 122.3025,
      "arg_perigee_deg": 345.3611,
      "mean_anomaly_deg": 14.6903,
      "mean_motion_rev_day": 14.23102581
    },
    {
      "epoch": "2026-03-31T20:27:50.853024Z",
      "apogee_km": 824.7493239891401,
      "perigee_km": 805.0088106939265,
      "latitude_deg": 2.6422568459814718e-05,
      "longitude_deg": -18.019765343554596,
      "height_km": 805.7253419789142,
      "semi_major_axis_km": 7193.016067341533,
      "eccentricity": 0.0013722,
      "inclination_deg": 49.9719,
      "raan_deg": 118.1662,
      "arg_perigee_deg": 348.824,
      "mean_anomaly_deg": 11.2366,
      "mean_motion_rev_day": 14.23102614
    },
    {
      "epoch": "2026-04-01T20:03:30.558240Z",
      "apogee_km": 824.7584555825761,
      "perigee_km": 804.999241047256,
      "latitude_deg": 5.2441679236612446e-05,
      "longitude_deg": -17.040566806770222,
      "height_km": 805.6171054030842,
      "semi_major_axis_km": 7193.015848314916,
      "eccentricity": 0.0013735,
      "inclination_deg": 49.9719,
      "raan_deg": 114.0298,
      "arg_perigee_deg": 352.2959,
      "mean_anomaly_deg": 7.7741,
      "mean_motion_rev_day": 14.23102679
    },
    {
      "epoch": "2026-04-02T19:39:10.216800Z",
      "apogee_km": 824.7615937031387,
      "perigee_km": 804.9905901980783,
      "latitude_deg": -4.168726057261358e-05,
      "longitude_deg": -16.061274181711315,
      "height_km": 805.5456814243056,
      "semi_major_axis_km": 7193.013091950608,
      "eccentricity": 0.00137432,
      "inclination_deg": 49.9719,
      "raan_deg": 109.8934,
      "arg_perigee_deg": 355.7516,
      "mean_anomaly_deg": 4.3277,
      "mean_motion_rev_day": 14.23103497
    },
    {
      "epoch": "2026-04-03T19:14:49.854624Z",
      "apogee_km": 824.7595405905085,
      "perigee_km": 804.9873934188054,
      "latitude_deg": 2.4673656210588745e-05,
      "longitude_deg": -15.08176154257662,
      "height_km": 805.5153408206827,
      "semi_major_axis_km": 7193.010467004657,
      "eccentricity": 0.0013744,
      "inclination_deg": 49.9718,
      "raan_deg": 105.757,
      "arg_perigee_deg": 359.2207,
      "mean_anomaly_deg": 0.8682,
      "mean_motion_rev_day": 14.23104276
    },
    {
      "epoch": "2026-04-04T18:50:29.476896Z",
      "apogee_km": 824.7542974452208,
      "perigee_km": 804.989347802416,
      "latitude_deg": 9.490035666993666e-06,
      "longitude_deg": -14.102252881959174,
      "height_km": 805.5262981052952,
      "semi_major_axis_km": 7193.008822623819,
      "eccentricity": 0.0013739,
      "inclination_deg": 49.9719,
      "raan_deg": 101.6206,
      "arg_perigee_deg": 2.6893,
      "mean_anomaly_deg": 357.4091,
      "mean_motion_rev_day": 14.23104764
    },
    {
      "epoch": "2026-04-05T13:22:47.736480Z",
      "apogee_km": 824.7590598187935,
      "perigee_km": 804.9826040856251,
      "latitude_deg": -1.9311777105181953e-06,
      "longitude_deg": 63.8103095148784,
      "height_km": 805.5522124912999,
      "semi_major_axis_km": 7193.007831952209,
      "eccentricity": 0.0013747,
      "inclination_deg": 49.9719,
      "raan_deg": 98.3706,
      "arg_perigee_deg": 5.4307,
      "mean_anomaly_deg": 354.6752,
      "mean_motion_rev_day": 14.23105058
    },
    {
      "epoch": "2026-04-05T20:07:16.183200Z",
      "apogee_km": 824.760157619753,
      "perigee_km": 804.9808256192973,
      "latitude_deg": -5.163348546453259e-05,
      "longitude_deg": -38.7669132054579,
      "height_km": 805.567470544547,
      "semi_major_axis_km": 7193.007491619524,
      "eccentricity": 0.0013749,
      "inclination_deg": 49.9719,
      "raan_deg": 97.1888,
      "arg_perigee_deg": 6.4049,
      "mean_anomaly_deg": 353.7036,
      "mean_motion_rev_day": 14.23105159
    },
    {
      "epoch": "2026-04-06T06:13:58.851552Z",
      "apogee_km": 824.7568009465804,
      "perigee_km": 804.9823626923699,
      "latitude_deg": 3.394134215847626e-05,
      "longitude_deg": 167.3672935379374,
      "height_km": 805.6007673920872,
      "semi_major_axis_km": 7193.006581819475,
      "eccentricity": 0.00137456,
      "inclination_deg": 49.9719,
      "raan_deg": 95.416,
      "arg_perigee_deg": 7.9069,
      "mean_anomaly_deg": 352.2058,
      "mean_motion_rev_day": 14.23105429
    }
  ]
}